NORAD_CAT_ID,OBJECT_NAME,OBJECT_TYPE,EPOCH,MEAN_MOTION,ECCENTRICITY,INCLINATION,RA_OF_ASC_NODE,ARG_OF_PERICENTER,MEAN_ANOMALY,BSTAR,MEAN_MOTION_DOT,MEAN_MOTION_DDOT,TLE_LINE0,TLE_LINE1,TLE_LINE2,SEMIMAJOR_AXIS,PERIOD,APOGEE,PERIGEE,DECAYED
52457.0,STARLINK-3899,PAYLOAD,2024-03-29 04:51:35,15.08885849,0.0001463,53.2194,18.6084,113.1922,246.9225,0.00039614,6.03e-05,0.0,0 STARLINK-3899,1 52457U 22049G   24089.20249977  .00006030  00000-0  39614-3 0  9998,2 52457  53.2194  18.6084 0001463 113.1922 246.9225 15.08885849105012,6917.74,95.435,540.617,538.593,0.0
52457.0,STARLINK-3899,PAYLOAD,2024-03-29 19:10:04,15.08860214,0.0001202,53.2178,15.9365,92.4882,267.6248,0.00042084,6.42e-05,0.0,0 STARLINK-3899,1 52457U 22049G   24089.79866630  .00006420  00000-0  42084-3 0  9991,2 52457  53.2178  15.9365 0001202  92.4882 267.6248 15.08860214105105,6917.819,95.436,540.515,538.852,0.0
52457.0,STARLINK-3899,PAYLOAD,2024-03-29 22:20:51,15.08849485,7.16e-05,53.2215,15.3371,73.4919,286.6152,0.00041327,6.297e-05,0.0,0 STARLINK-3899,1 52457U 22049G   24089.93115128  .00006297  00000-0  41327-3 0  9997,2 52457  53.2215  15.3371 0000716  73.4919 286.6152 15.08849485104962,6917.851,95.437,540.212,539.221,0.0
52457.0,STARLINK-3899,PAYLOAD,2024-03-30 04:42:23,15.08852884,0.0001528,53.2191,14.1488,105.2482,254.8679,8.9565e-05,1.138e-05,0.0,0 STARLINK-3899,1 52457U 22049G   24090.19610666  .00001138  00000-0  89565-4 0  9990,2 52457  53.2191  14.1488 0001528 105.2482 254.8679 15.08852884105163,6917.841,95.437,540.763,538.649,0.0
52457.0,STARLINK-3899,PAYLOAD,2024-03-30 19:00:52,15.08836257,0.000174,53.217,11.4706,108.2693,251.8489,-5.9459e-05,-1.234e-05,0.0,0 STARLINK-3899,1 52457U 22049G   24090.79227168 -.00001234  00000-0 -59459-4 0  9995,2 52457  53.2170  11.4706 0001740 108.2693 251.8489 15.08836257105258,6917.892,95.438,540.961,538.553,0.0
52457.0,STARLINK-3899,PAYLOAD,2024-03-30 22:11:39,15.08826665,9.8e-05,53.22,10.8784,95.898,264.2123,5.8499e-06,-1.95e-06,0.0,0 STARLINK-3899,1 52457U 22049G   24090.92476073 -.00000195  00000-0  58499-5 0  9999,2 52457  53.2200  10.8784 0000980  95.8980 264.2123 15.08826665105116,6917.921,95.438,540.464,539.108,0.0
52457.0,STARLINK-3899,PAYLOAD,2024-03-31 04:33:11,15.08830054,0.0001185,53.2182,9.69,91.2351,268.8777,-0.00013168,-2.382e-05,0.0,0 STARLINK-3899,1 52457U 22049G   24091.18971994 -.00002382  00000-0 -13168-3 0  9993,2 52457  53.2182   9.6900 0001185  91.2351 268.8777 15.08830054105315,6917.911,95.438,540.596,538.956,0.0
52457.0,STARLINK-3899,PAYLOAD,2024-03-31 22:02:26,15.08831422,0.0001268,53.2184,6.4203,96.994,263.1196,0.00012882,1.762e-05,0.0,0 STARLINK-3899,1 52457U 22049G   24091.91836155  .00001762  00000-0  12882-3 0  9994,2 52457  53.2184   6.4203 0001268  96.9940 263.1196 15.08831422105263,6917.907,95.438,540.649,538.894,0.0
52457.0,STARLINK-3899,PAYLOAD,2024-04-01 04:23:58,15.08843099,0.0001258,53.2176,5.2307,95.4697,264.6438,0.00039973,6.08e-05,0.0,0 STARLINK-3899,1 52457U 22049G   24092.18331931  .00006080  00000-0  39973-3 0  9994,2 52457  53.2176   5.2307 0001258  95.4697 264.6438 15.08843099105468,6917.871,95.437,540.606,538.866,0.0
52457.0,STARLINK-3899,PAYLOAD,2024-04-01 10:45:30,15.08854153,0.0001253,53.2181,4.0419,94.7804,265.3331,0.00054319,8.371e-05,0.0,0 STARLINK-3899,1 52457U 22049G   24092.44827502  .00008371  00000-0  54319-3 0  9993,2 52457  53.2181   4.0419 0001253  94.7804 265.3331 15.08854153105342,6917.837,95.437,540.569,538.835,0.0
52457.0,STARLINK-3899,PAYLOAD,2024-04-02 02:39:22,15.08846483,0.0001261,53.2179,1.0684,83.6654,276.4482,0.00047493,7.28e-05,0.0,0 STARLINK-3899,1 52457U 22049G   24093.11068198  .00007280  00000-0  47493-3 0  9999,2 52457  53.2179   1.0684 0001261  83.6654 276.4482 15.08846483105605,6917.861,95.437,540.598,538.853,0.0
52457.0,STARLINK-3899,PAYLOAD,2024-04-02 10:36:18,15.08853269,0.0001224,53.2176,359.5817,81.1661,278.947,0.0012492,0.00019656,0.0,0 STARLINK-3899,1 52457U 22049G   24093.44188126  .00019656  00000-0  12492-2 0  9999,2 52457  53.2176 359.5817 0001224  81.1661 278.9470 15.08853269105492,6917.84,95.437,540.552,538.858,0.0
52457.0,STARLINK-3899,PAYLOAD,2024-04-03 04:05:33,15.08833407,0.0001304,53.2175,356.3109,89.7814,270.3328,0.001152,0.0001809,0.0,0 STARLINK-3899,1 52457U 22049G   24094.17052961  .00018090  00000-0  11520-2 0  9999,2 52457  53.2175 356.3109 0001304  89.7814 270.3328 15.08833407105763,6917.901,95.438,540.668,538.863,0.0
52457.0,STARLINK-3899,PAYLOAD,2024-04-03 10:27:06,15.08846319,0.0001251,53.2172,355.1209,85.1917,274.9218,0.0012597,0.0001982,0.0,0 STARLINK-3899,1 52457U 22049G   24094.43548907  .00019820  00000-0  12597-2 0  9995,2 52457  53.2172 355.1209 0001251  85.1917 274.9218 15.08846319105644,6917.861,95.437,540.591,538.861,0.0
52457.0,STARLINK-3899,PAYLOAD,2024-04-03 23:10:11,15.0884802,0.0001543,53.2179,352.7433,85.0316,275.0853,0.00080305,0.00012518,0.0,0 STARLINK-3899,1 52457U 22049G   24094.96540984  .00012518  00000-0  80305-3 0  9990,2 52457  53.2179 352.7433 0001543  85.0316 275.0853 15.08848020105726,6917.856,95.437,540.788,538.653,0.0
52457.0,STARLINK-3899,PAYLOAD,2024-04-04 02:20:57,15.08851117,0.000143,53.2179,352.1481,88.0597,272.0558,0.00072849,0.00011328,0.0,0 STARLINK-3899,1 52457U 22049G   24095.09788882  .00011328  00000-0  72849-3 0  9998,2 52457  53.2179 352.1481 0001430  88.0597 272.0558 15.08851117105902,6917.846,95.437,540.701,538.722,0.0
52457.0,STARLINK-3899,PAYLOAD,2024-04-04 10:17:53,15.08854507,0.0001418,53.2177,350.6612,87.9663,272.1492,0.00062314,9.647e-05,0.0,0 STARLINK-3899,1 52457U 22049G   24095.42908618  .00009647  00000-0  62314-3 0  9993,2 52457  53.2177 350.6612 0001418  87.9663 272.1492 15.08854507105798,6917.836,95.437,540.682,538.72,0.0
52457.0,STARLINK-3899,PAYLOAD,2024-04-04 23:00:58,15.08844794,0.0001206,53.2177,348.2824,93.3053,266.8077,0.00028978,4.328e-05,0.0,0 STARLINK-3899,1 52457U 22049G   24095.95900716  .00004328  00000-0  28978-3 0  9991,2 52457  53.2177 348.2824 0001206  93.3053 266.8077 15.08844794105870,6917.866,95.437,540.565,538.896,0.0
52457.0,STARLINK-3899,PAYLOAD,2024-04-05 10:08:39,15.08856207,0.0001325,53.217,346.2001,94.6064,265.5079,0.0007669,0.00011944,0.0,0 STARLINK-3899,1 52457U 22049G   24096.42268373  .00011944  00000-0  76690-3 0  9996,2 52457  53.2170 346.2001 0001325  94.6064 265.5079 15.08856207105944,6917.831,95.437,540.612,538.779,0.0
52457.0,STARLINK-3899,PAYLOAD,2024-04-05 21:16:22,15.08840604,0.0001391,53.2172,344.1195,82.4932,277.6218,0.00030279,4.534e-05,0.0,0 STARLINK-3899,1 52457U 22049G   24096.88636580  .00004534  00000-0  30279-3 0  9995,2 52457  53.2172 344.1195 0001391  82.4932 277.6218 15.08840604106011,6917.879,95.438,540.706,538.781,0.0
52457.0,STARLINK-3899,PAYLOAD,2024-04-06 02:02:31,15.0884142,0.0001629,53.2185,343.226,92.2158,267.902,0.0003195,4.801e-05,0.0,0 STARLINK-3899,1 52457U 22049G   24097.08508651  .00004801  00000-0  31950-3 0  9999,2 52457  53.2185 343.2260 0001629  92.2158 267.9020 15.08841420106202,6917.876,95.437,540.868,538.614,0.0
52457.0,STARLINK-3899,PAYLOAD,2024-04-06 09:59:26,15.08850077,0.0001591,53.2188,341.7394,91.0219,269.0956,0.00031313,4.7e-05,0.0,0 STARLINK-3899,1 52457U 22049G   24097.41628372  .00004700  00000-0  31313-3 0  9990,2 52457  53.2188 341.7394 0001591  91.0219 269.0956 15.08850077106095,6917.85,95.437,540.815,538.614,0.0
52457.0,STARLINK-3899,PAYLOAD,2024-04-06 22:42:32,15.08838287,0.0002045,53.2214,339.3609,99.6045,260.5179,0.00015657,2.204e-05,0.0,0 STARLINK-3899,1 52457U 22049G   24097.94620943  .00002204  00000-0  15657-3 0  9994,2 52457  53.2214 339.3609 0002045  99.6045 260.5179 15.08838287106174,6917.886,95.438,541.165,538.336,0.0
52457.0,STARLINK-3899,PAYLOAD,2024-04-07 01:53:18,15.08836493,0.0001268,53.217,338.7661,93.9471,266.1666,-1.5096e-05,-5.28e-06,0.0,0 STARLINK-3899,1 52457U 22049G   24098.07868962 -.00000528  00000-0 -15096-4 0  9991,2 52457  53.2170 338.7661 0001268  93.9471 266.1666 15.08836493106194,6917.891,95.438,540.633,538.879,0.0
52457.0,STARLINK-3899,PAYLOAD,2024-04-07 22:33:19,15.08844899,0.0001416,53.2184,334.9011,92.6357,267.4797,0.00029441,4.401e-05,0.0,0 STARLINK-3899,1 52457U 22049G   24098.93980939  .00004401  00000-0  29441-3 0  9995,2 52457  53.2184 334.9011 0001416  92.6357 267.4797 15.08844899106323,6917.865,95.437,540.71,538.751,0.0
52457.0,STARLINK-3899,PAYLOAD,2024-04-08 08:05:38,15.08848999,0.0001293,53.2179,333.1176,94.568,265.546,0.0003857,5.857e-05,0.0,0 STARLINK-3899,1 52457U 22049G   24099.33724814  .00005857  00000-0  38570-3 0  9997,2 52457  53.2179 333.1176 0001293  94.5680 265.5460 15.08848999106548,6917.853,95.437,540.612,538.823,0.0
52457.0,STARLINK-3899,PAYLOAD,2024-04-08 22:24:06,15.08838865,0.0001408,53.2198,330.4426,96.7785,263.3367,8.0007e-05,9.86e-06,0.0,0 STARLINK-3899,1 52457U 22049G   24099.93341135  .00000986  00000-0  80007-4 0  9995,2 52457  53.2198 330.4426 0001408  96.7785 263.3367 15.08838865106470,6917.884,95.438,540.723,538.775,0.0
52457.0,STARLINK-3899,PAYLOAD,2024-04-09 04:45:39,15.08843867,0.0001456,53.219,329.2502,85.4091,274.7067,0.00014519,2.024e-05,0.0,0 STARLINK-3899,1 52457U 22049G   24100.19836928  .00002024  00000-0  14519-3 0  9994,2 52457  53.2190 329.2502 0001456  85.4091 274.7067 15.08843867106674,6917.869,95.437,540.741,538.726,0.0
52457.0,STARLINK-3899,PAYLOAD,2024-04-09 07:56:24,15.0885054,0.0001345,53.2176,328.6558,94.1692,265.9454,0.00010194,1.335e-05,0.0,0 STARLINK-3899,1 52457U 22049G   24100.33084473  .00001335  00000-0  10194-3 0  9999,2 52457  53.2176 328.6558 0001345  94.1692 265.9454 15.08850540106536,6917.848,95.437,540.644,538.783,0.0
52457.0,STARLINK-3899,PAYLOAD,2024-04-09 22:14:53,15.08844244,0.0001869,53.2162,325.9772,79.023,281.0972,7.7607e-05,9.47e-06,0.0,0 STARLINK-3899,1 52457U 22049G   24100.92700924  .00000947  00000-0  77607-4 0  9991,2 52457  53.2162 325.9772 0001869  79.0230 281.0972 15.08844244106628,6917.867,95.437,541.025,538.439,0.0
